{
  "type": "Feature",
  "properties": {
    "from": "aka",
    "to": "zamami",
    "fromCoord": [
      127.2875,
      26.1893
    ],
    "toCoord": [
      127.3025,
      26.2267
    ],
    "method": "corridor-grid-v1",
    "stage": "single",
    "cellSizeM": 20,
    "snapFromM": 0.0,
    "snapToM": 20.0,
    "landCrossingM": 0.0
  },
  "geometry": {
    "type": "LineString",
    "coordinates": [
      [
        127.2875,
        26.1893
      ],
      [
        127.287536,
        26.189256
      ],
      [
        127.294954,
        26.193932
      ],
      [
        127.299364,
        26.211918
      ],
      [
        127.297761,
        26.220912
      ],
      [
        127.300367,
        26.224149
      ],
      [
        127.302772,
        26.226667
      ],
      [
        127.3025,
        26.2267
      ]
    ]
  }
}
