{
  "type": "Feature",
  "properties": {
    "from": "aomori",
    "to": "muroran",
    "fromCoord": [
      140.7166,
      40.845
    ],
    "toCoord": [
      140.9765,
      42.3272
    ],
    "method": "corridor-grid-v1",
    "stage": "corridor",
    "cellSizeM": 40,
    "snapFromM": 40.0,
    "snapToM": 0.0,
    "landCrossingM": 0.0
  },
  "geometry": {
    "type": "LineString",
    "coordinates": [
      [
        140.7166,
        40.845
      ],
      [
        140.71636,
        40.84545
      ],
      [
        140.751469,
        40.875667
      ],
      [
        140.764454,
        41.26921
      ],
      [
        140.898879,
        41.581111
      ],
      [
        141.18865,
        41.800885
      ],
      [
        141.189131,
        41.813836
      ],
      [
        140.928266,
        42.334798
      ],
      [
        140.926824,
        42.344511
      ],
      [
        140.928747,
        42.34559
      ],
      [
        140.951352,
        42.351345
      ],
      [
        140.97059,
        42.336956
      ],
      [
        140.976361,
        42.327244
      ],
      [
        140.9765,
        42.3272
      ]
    ]
  }
}
