{
  "type": "Feature",
  "properties": {
    "from": "beppu-oki",
    "to": "shichirui",
    "fromCoord": [
      133.0412,
      36.1081
    ],
    "toCoord": [
      133.2292,
      35.5717
    ],
    "method": "corridor-grid-v2",
    "stage": "single",
    "cellSizeM": 40,
    "snapFromM": 40.0,
    "snapToM": 0.0,
    "landCrossingM": 0.0
  },
  "geometry": {
    "type": "LineString",
    "coordinates": [
      [
        133.0412,
        36.1081
      ],
      [
        133.041642,
        36.108101
      ],
      [
        133.045192,
        36.107742
      ],
      [
        133.058061,
        36.088676
      ],
      [
        133.068267,
        36.019968
      ],
      [
        133.07803,
        36.012054
      ],
      [
        133.248429,
        35.582179
      ],
      [
        133.248429,
        35.58074
      ],
      [
        133.229348,
        35.571747
      ],
      [
        133.2292,
        35.5717
      ]
    ]
  }
}
