{
  "type": "Feature",
  "properties": {
    "from": "china",
    "to": "hetono",
    "fromCoord": [
      128.57176,
      27.33052
    ],
    "toCoord": [
      128.89077,
      27.81351
    ],
    "method": "corridor-grid-v2",
    "stage": "single",
    "cellSizeM": 40,
    "snapFromM": 0.0,
    "snapToM": 89.4,
    "landCrossingM": 33.9
  },
  "geometry": {
    "type": "LineString",
    "coordinates": [
      [
        128.57176,
        27.33052
      ],
      [
        128.571759,
        27.330396
      ],
      [
        128.570541,
        27.329677
      ],
      [
        128.570136,
        27.329317
      ],
      [
        128.56973,
        27.328957
      ],
      [
        128.56973,
        27.328597
      ],
      [
        128.587992,
        27.330396
      ],
      [
        128.632226,
        27.359174
      ],
      [
        128.715418,
        27.432919
      ],
      [
        128.887079,
        27.813871
      ],
      [
        128.890325,
        27.81423
      ],
      [
        128.89077,
        27.81351
      ]
    ]
  }
}
