{
  "type": "Feature",
  "properties": {
    "from": "hetono",
    "to": "koniya",
    "fromCoord": [
      128.89077,
      27.81351
    ],
    "toCoord": [
      129.30869,
      28.14568
    ],
    "method": "corridor-grid-v2",
    "stage": "single",
    "cellSizeM": 40,
    "snapFromM": 89.4,
    "snapToM": 40.0,
    "landCrossingM": 0.0
  },
  "geometry": {
    "type": "LineString",
    "coordinates": [
      [
        128.89077,
        27.81351
      ],
      [
        128.890176,
        27.814176
      ],
      [
        128.877141,
        27.827486
      ],
      [
        128.887324,
        27.936483
      ],
      [
        129.173685,
        28.189372
      ],
      [
        129.209123,
        28.206279
      ],
      [
        129.231527,
        28.204121
      ],
      [
        129.295072,
        28.146924
      ],
      [
        129.306885,
        28.145126
      ],
      [
        129.308107,
        28.146205
      ],
      [
        129.308514,
        28.146205
      ],
      [
        129.30869,
        28.14568
      ]
    ]
  }
}
