{
  "type": "Feature",
  "properties": {
    "from": "himeji",
    "to": "shodoshima-fukuda",
    "fromCoord": [
      134.66277,
      34.78397
    ],
    "toCoord": [
      134.34463,
      34.54346
    ],
    "method": "corridor-grid-v1",
    "stage": "single",
    "cellSizeM": 40,
    "snapFromM": 40.0,
    "snapToM": 0.0,
    "landCrossingM": 0.0
  },
  "geometry": {
    "type": "LineString",
    "coordinates": [
      [
        134.66277,
        34.78397
      ],
      [
        134.662519,
        34.784027
      ],
      [
        134.616597,
        34.721794
      ],
      [
        134.569362,
        34.682944
      ],
      [
        134.546619,
        34.659561
      ],
      [
        134.527813,
        34.645532
      ],
      [
        134.516004,
        34.634021
      ],
      [
        134.499385,
        34.627905
      ],
      [
        134.347185,
        34.543009
      ],
      [
        134.34456,
        34.543369
      ],
      [
        134.34463,
        34.54346
      ]
    ]
  }
}
