{
  "type": "Feature",
  "properties": {
    "from": "hishiura",
    "to": "saigo",
    "fromCoord": [
      133.0774,
      36.1048
    ],
    "toCoord": [
      133.3356,
      36.2031
    ],
    "method": "corridor-grid-v2",
    "stage": "single",
    "cellSizeM": 20,
    "snapFromM": 20.0,
    "snapToM": 0.0,
    "landCrossingM": 0.0
  },
  "geometry": {
    "type": "LineString",
    "coordinates": [
      [
        133.0774,
        36.1048
      ],
      [
        133.077441,
        36.105041
      ],
      [
        133.076772,
        36.112056
      ],
      [
        133.085237,
        36.118711
      ],
      [
        133.094816,
        36.121769
      ],
      [
        133.296859,
        36.129503
      ],
      [
        133.344975,
        36.168354
      ],
      [
        133.341857,
        36.191556
      ],
      [
        133.337401,
        36.195153
      ],
      [
        133.337401,
        36.20001
      ],
      [
        133.335619,
        36.203067
      ],
      [
        133.3356,
        36.2031
      ]
    ]
  }
}
