{
  "type": "Feature",
  "properties": {
    "from": "ieura",
    "to": "naoshima-miyanoura",
    "fromCoord": [
      134.061,
      34.4901
    ],
    "toCoord": [
      133.9739,
      34.4568
    ],
    "method": "corridor-grid-v2",
    "stage": "corridor",
    "cellSizeM": 20,
    "snapFromM": 20.0,
    "snapToM": 0.0,
    "landCrossingM": 0.0
  },
  "geometry": {
    "type": "LineString",
    "coordinates": [
      [
        134.061,
        34.4901
      ],
      [
        134.061063,
        34.490207
      ],
      [
        134.041209,
        34.489847
      ],
      [
        134.021136,
        34.476897
      ],
      [
        133.995391,
        34.479955
      ],
      [
        133.989501,
        34.478156
      ],
      [
        133.972701,
        34.481933
      ],
      [
        133.968992,
        34.481753
      ],
      [
        133.964192,
        34.477796
      ],
      [
        133.963101,
        34.475818
      ],
      [
        133.96441,
        34.464846
      ],
      [
        133.973792,
        34.456752
      ],
      [
        133.9739,
        34.4568
      ]
    ]
  }
}
