{
  "type": "Feature",
  "properties": {
    "from": "kagoshima-honko",
    "to": "kikai",
    "fromCoord": [
      130.566,
      31.5912
    ],
    "toCoord": [
      129.93707,
      28.32643
    ],
    "method": "corridor-grid-v2",
    "stage": "corridor",
    "cellSizeM": 40,
    "snapFromM": 40.0,
    "snapToM": 40.0,
    "landCrossingM": 0.0
  },
  "geometry": {
    "type": "LineString",
    "coordinates": [
      [
        130.566,
        31.5912
      ],
      [
        130.565803,
        31.591011
      ],
      [
        130.594867,
        31.547484
      ],
      [
        130.669189,
        31.267256
      ],
      [
        130.653826,
        31.185957
      ],
      [
        130.376692,
        30.393448
      ],
      [
        129.934377,
        28.328746
      ],
      [
        129.936453,
        28.326587
      ],
      [
        129.93707,
        28.32643
      ]
    ]
  }
}
