{
  "type": "Feature",
  "properties": {
    "from": "kikai",
    "to": "naze",
    "fromCoord": [
      129.93707,
      28.32643
    ],
    "toCoord": [
      129.50386,
      28.3933
    ],
    "method": "corridor-grid-v2",
    "stage": "corridor",
    "cellSizeM": 40,
    "snapFromM": 56.6,
    "snapToM": 0.0,
    "landCrossingM": 0.0
  },
  "geometry": {
    "type": "LineString",
    "coordinates": [
      [
        129.93707,
        28.32643
      ],
      [
        129.936762,
        28.325918
      ],
      [
        129.690912,
        28.532369
      ],
      [
        129.681509,
        28.53201
      ],
      [
        129.542521,
        28.4651
      ],
      [
        129.527804,
        28.45215
      ],
      [
        129.515132,
        28.442797
      ],
      [
        129.50205,
        28.399989
      ],
      [
        129.503685,
        28.393155
      ],
      [
        129.50386,
        28.3933
      ]
    ]
  }
}
