{
  "type": "Feature",
  "properties": {
    "from": "kirikushi",
    "to": "koyo",
    "fromCoord": [
      132.47512,
      34.28487
    ],
    "toCoord": [
      132.49301,
      34.2477
    ],
    "method": "corridor-grid-v2",
    "stage": "single",
    "cellSizeM": 20,
    "snapFromM": 0.0,
    "snapToM": 0.0,
    "landCrossingM": 0.0
  },
  "geometry": {
    "type": "LineString",
    "coordinates": [
      [
        132.47512,
        34.28487
      ],
      [
        132.47516,
        34.284837
      ],
      [
        132.477336,
        34.297428
      ],
      [
        132.481036,
        34.296888
      ],
      [
        132.492135,
        34.283578
      ],
      [
        132.498447,
        34.273866
      ],
      [
        132.500406,
        34.26865
      ],
      [
        132.498665,
        34.251023
      ],
      [
        132.493006,
        34.247785
      ],
      [
        132.49301,
        34.2477
      ]
    ]
  }
}
