{
  "type": "Feature",
  "properties": {
    "from": "kobe-sannomiya",
    "to": "sakate",
    "fromCoord": [
      135.1994,
      34.6818
    ],
    "toCoord": [
      134.3214,
      34.4557
    ],
    "method": "corridor-grid-v2",
    "stage": "single",
    "cellSizeM": 40,
    "snapFromM": 0.0,
    "snapToM": 40.0,
    "landCrossingM": 0.0
  },
  "geometry": {
    "type": "LineString",
    "coordinates": [
      [
        135.1994,
        34.6818
      ],
      [
        135.19956,
        34.681736
      ],
      [
        135.200434,
        34.67598
      ],
      [
        135.189513,
        34.652238
      ],
      [
        135.183834,
        34.647921
      ],
      [
        135.057582,
        34.62274
      ],
      [
        134.999917,
        34.622381
      ],
      [
        134.338078,
        34.431365
      ],
      [
        134.33502,
        34.431365
      ],
      [
        134.317983,
        34.445395
      ],
      [
        134.321478,
        34.455467
      ],
      [
        134.3214,
        34.4557
      ]
    ]
  }
}
