{
  "type": "Feature",
  "properties": {
    "from": "koniya",
    "to": "naze",
    "fromCoord": [
      129.30869,
      28.14568
    ],
    "toCoord": [
      129.50386,
      28.3933
    ],
    "method": "corridor-grid-v2",
    "stage": "corridor",
    "cellSizeM": 40,
    "snapFromM": 40.0,
    "snapToM": 0.0,
    "landCrossingM": 0.0
  },
  "geometry": {
    "type": "LineString",
    "coordinates": [
      [
        129.30869,
        28.14568
      ],
      [
        129.308432,
        28.145679
      ],
      [
        129.298629,
        28.14388
      ],
      [
        129.24063,
        28.195681
      ],
      [
        129.23287,
        28.199998
      ],
      [
        129.158942,
        28.227697
      ],
      [
        129.149547,
        28.235971
      ],
      [
        129.132393,
        28.253238
      ],
      [
        129.133618,
        28.266188
      ],
      [
        129.176505,
        28.303959
      ],
      [
        129.18304,
        28.308636
      ],
      [
        129.339277,
        28.372216
      ],
      [
        129.452007,
        28.416103
      ],
      [
        129.490809,
        28.414664
      ],
      [
        129.501837,
        28.397757
      ],
      [
        129.503879,
        28.39344
      ],
      [
        129.50386,
        28.3933
      ]
    ]
  }
}
