{
  "type": "Feature",
  "properties": {
    "from": "kure",
    "to": "miyajima",
    "fromCoord": [
      132.555,
      34.2398
    ],
    "toCoord": [
      132.32225,
      34.3021
    ],
    "method": "corridor-grid-v2",
    "stage": "single",
    "cellSizeM": 20,
    "snapFromM": 0.0,
    "snapToM": 56.6,
    "landCrossingM": 0.0
  },
  "geometry": {
    "type": "LineString",
    "coordinates": [
      [
        132.555,
        34.2398
      ],
      [
        132.55496,
        34.239834
      ],
      [
        132.553436,
        34.238755
      ],
      [
        132.532324,
        34.238935
      ],
      [
        132.522965,
        34.244871
      ],
      [
        132.512953,
        34.256382
      ],
      [
        132.482046,
        34.296132
      ],
      [
        132.480523,
        34.297391
      ],
      [
        132.432204,
        34.295232
      ],
      [
        132.334478,
        34.313758
      ],
      [
        132.321854,
        34.302427
      ],
      [
        132.32225,
        34.3021
      ]
    ]
  }
}
