{
  "type": "Feature",
  "properties": {
    "from": "michigoe",
    "to": "tosaki",
    "fromCoord": [
      133.26163,
      34.3938
    ],
    "toCoord": [
      133.24335,
      34.39861
    ],
    "method": "corridor-grid-v2",
    "stage": "corridor",
    "cellSizeM": 20,
    "snapFromM": 0.0,
    "snapToM": 0.0,
    "landCrossingM": 0.0
  },
  "geometry": {
    "type": "LineString",
    "coordinates": [
      [
        133.26163,
        34.3938
      ],
      [
        133.261552,
        34.393843
      ],
      [
        133.261116,
        34.391145
      ],
      [
        133.25741,
        34.388087
      ],
      [
        133.253269,
        34.386828
      ],
      [
        133.246948,
        34.387008
      ],
      [
        133.242806,
        34.390425
      ],
      [
        133.243242,
        34.398699
      ],
      [
        133.24335,
        34.39861
      ]
    ]
  }
}
