{
  "type": "Feature",
  "properties": {
    "from": "oshima-okata",
    "to": "takeshiba",
    "fromCoord": [
      139.3906,
      34.7905
    ],
    "toCoord": [
      139.7634,
      35.6534
    ],
    "method": "corridor-grid-v2",
    "stage": "single",
    "cellSizeM": 40,
    "snapFromM": 0.0,
    "snapToM": 204.0,
    "landCrossingM": 0.0
  },
  "geometry": {
    "type": "LineString",
    "coordinates": [
      [
        139.3906,
        34.7905
      ],
      [
        139.390432,
        34.79055
      ],
      [
        139.386909,
        34.793428
      ],
      [
        139.681059,
        35.139846
      ],
      [
        139.729497,
        35.210353
      ],
      [
        139.748872,
        35.251721
      ],
      [
        139.800392,
        35.509287
      ],
      [
        139.798191,
        35.522956
      ],
      [
        139.799071,
        35.527993
      ],
      [
        139.810961,
        35.538065
      ],
      [
        139.792026,
        35.590945
      ],
      [
        139.766046,
        35.620802
      ],
      [
        139.762963,
        35.651739
      ],
      [
        139.7634,
        35.6534
      ]
    ]
  }
}
