{
  "type": "Feature",
  "properties": {
    "from": "oshima-okata",
    "to": "toshima",
    "fromCoord": [
      139.3906,
      34.7905
    ],
    "toCoord": [
      139.2804,
      34.5339
    ],
    "method": "corridor-grid-v2",
    "stage": "single",
    "cellSizeM": 40,
    "snapFromM": 0.0,
    "snapToM": 0.0,
    "landCrossingM": 0.0
  },
  "geometry": {
    "type": "LineString",
    "coordinates": [
      [
        139.3906,
        34.7905
      ],
      [
        139.390542,
        34.790557
      ],
      [
        139.373923,
        34.79991
      ],
      [
        139.359928,
        34.80063
      ],
      [
        139.35293,
        34.793795
      ],
      [
        139.347682,
        34.783003
      ],
      [
        139.279893,
        34.534071
      ],
      [
        139.28033,
        34.534071
      ],
      [
        139.2804,
        34.5339
      ]
    ]
  }
}
