{
  "type": "Feature",
  "properties": {
    "from": "setoda",
    "to": "setoda-sawa",
    "fromCoord": [
      133.08429,
      34.3047
    ],
    "toCoord": [
      133.09028,
      34.31305
    ],
    "method": "corridor-grid-v2",
    "stage": "single",
    "cellSizeM": 20,
    "snapFromM": 28.3,
    "snapToM": 20.0,
    "landCrossingM": 0.0
  },
  "geometry": {
    "type": "LineString",
    "coordinates": [
      [
        133.08429,
        34.3047
      ],
      [
        133.084112,
        34.304923
      ],
      [
        133.083894,
        34.30924
      ],
      [
        133.088902,
        34.313377
      ],
      [
        133.090209,
        34.313197
      ],
      [
        133.09028,
        34.31305
      ]
    ]
  }
}
