{
  "type": "Feature",
  "properties": {
    "from": "shimoda",
    "to": "toshima",
    "fromCoord": [
      138.9492,
      34.6702
    ],
    "toCoord": [
      139.2804,
      34.5339
    ],
    "method": "corridor-grid-v2",
    "stage": "single",
    "cellSizeM": 40,
    "snapFromM": 40.0,
    "snapToM": 40.0,
    "landCrossingM": 0.0
  },
  "geometry": {
    "type": "LineString",
    "coordinates": [
      [
        138.9492,
        34.6702
      ],
      [
        138.94913,
        34.670617
      ],
      [
        138.951316,
        34.66702
      ],
      [
        138.951316,
        34.658026
      ],
      [
        138.950442,
        34.656588
      ],
      [
        138.95656,
        34.650832
      ],
      [
        139.280401,
        34.53428
      ],
      [
        139.2804,
        34.5339
      ]
    ]
  }
}
